1 88888U          80275.98708465  .00073094  13844-3  66816-4 0     8
2 88888  72.8435 115.9689 0086731  52.6988 110.5714 16.05824518   105

Reference number: 10
Ephem set number: 0
Ephem type: 0
Year: 1980
Day: 275.98708465
Average motion n0 ( rad/s ): 0.0700673125 ( 16.058245180 1/day )
BSTAR Drag term: 0.0000668160
Orbit declination i0 ( rad ): 1.2713589122 (  72.8435 deg )
Right accending raan ( rad ): 2.0240391326 ( 115.9689 deg )
Excentricity e0: 0.0086731
Perigelium arg w0 ( rad ): 0.9197675708 (  52.6988 deg )
Average anomaly m0 ( rad ): 1.9298349863 ( 110.5714 deg )

   0  2328.8728037 -5995.2125076  1720.0497844  2.9121068 -0.9835394 -7.0908151
 360  2456.0460847 -6071.9048892  1222.8401777  2.6793620 -0.4482078 -7.2288858
 720  2567.6849098 -6112.4087550   713.2909166  2.4399244  0.0989414 -7.3201881
1080  2663.4957973 -6115.1815364   194.6255122  2.1952509  0.6545395 -7.3630898
1440  2743.2944695 -6078.9066226  -329.7412534  1.9468059  1.2150088 -7.3562556

Отклонения от эталона:
   0  0.00015352  0.00038306  0.00094102  0.00000020 -0.00000091  0.00000041
 360  0.00030830  0.00001806 -0.00068842 -0.00000044  0.00000069 -0.00000025
 720  0.00107191  0.00005846 -0.00190715 -0.00000117  0.00000219 -0.00000042
1080  0.00071063  0.00028736 -0.00265589 -0.00000150  0.00000286 -0.00000004
1440  0.00208058  0.00121435 -0.00691270 -0.00000368  0.00000766  0.00000032
